OBJECT_NAME,OBJECT_ID,EPOCH,MEAN_MOTION,ECCENTRICITY,INCLINATION,RA_OF_ASC_NODE,ARG_OF_PERICENTER,MEAN_ANOMALY,EPHEMERIS_TYPE,CLASSIFICATION_TYPE,NORAD_CAT_ID,ELEMENT_SET_NO,REV_AT_EPOCH,BSTAR,MEAN_MOTION_DOT,MEAN_MOTION_DDOT
SJ-7,2005-024A,2026-07-16T14:45:07.119072,15.21947098,.0013656,97.7272,228.5169,291.2508,68.7268,0,U,28737,999,15250,.17631E-3,.3953E-4,0
CUBESAT XI-V,2005-043F,2026-07-16T16:28:52.831776,14.72704407,.0015305,98.3017,353.9342,110.8516,249.4332,0,U,28895,999,10609,.1069E-3,.63E-5,0
CLOUDSAT,2006-016A,2026-07-16T20:03:39.714912,14.86447034,.0004218,98.3915,236.7685,225.4613,134.6257,0,U,29107,999,7891,.55964E-4,.434E-5,0
CALIPSO,2006-016B,2026-07-16T20:25:25.943808,14.69402252,.0001423,98.4471,214.5264,110.7115,249.4242,0,U,29108,999,7741,.88368E-4,.47E-5,0
HINODE (SOLAR-B),2006-041A,2026-07-16T14:49:53.885856,14.68659234,.0017144,98.0548,213.3366,189.8725,170.2146,0,U,29479,999,5919,.55834E-4,.276E-5,0
METOP-A,2006-044A,2026-07-16T20:04:55.890336,14.76049229,.0173024,98.3352,305.4726,335.2302,184.8531,0,U,29499,999,2982,.60178E-4,.459E-5,0
SHIJIAN-6 02B (SJ-6 02B),2006-046B,2026-07-16T20:53:11.161248,15.01438682,.0013218,97.7140,226.7448,330.5550,29.4928,0,U,29506,999,7519,.26469E-4,.281E-5,0
DMSP 5D-3 F17 (USA 191),2006-050A,2026-07-16T20:50:29.357376,14.14996195,.0009632,98.7388,203.8322,337.9328,22.1430,0,U,29522,999,1662,.16325E-5,-.4E-6,0
LAPAN-TUBSAT,2007-001A,2026-07-16T19:34:15.693888,14.85976075,.0013595,98.1347,197.7092,89.1662,271.1110,0,U,29709,999,5555,.23954E-4,.152E-5,0
HAIYANG-1B,2007-010A,2026-07-16T12:16:09.223968,14.31033518,.0014679,98.3516,178.2219,112.1699,248.1044,0,U,31113,999,483,.25348E-4,.25E-6,0
BEIDOU-2 M1,2007-011A,2026-07-15T13:42:30.254400,1.77349362,.0002048,50.9235,218.3344,327.9250,32.1102,0,U,31115,999,7665,0,.45E-6,0
CAPE-1,2007-012P,2026-07-16T21:10:12.919008,14.64956304,.0082923,98.4480,173.1761,339.4996,20.2884,0,U,31130,999,2270,.12907E-3,.67E-5,0
CBERS 2B,2007-042A,2026-07-16T11:24:04.813344,14.41489133,.0029758,98.3930,141.6157,245.8324,227.2559,0,U,32062,999,98890,.36504E-4,.76E-6,0
COSMO-SKYMED 2,2007-059A,2026-07-16T19:09:22.064256,14.82151219,.0001464,97.8895,20.9678,93.9717,266.1663,0,U,32376,999,639,.2497E-4,.147E-5,0
CARTOSAT-2A,2008-021A,2026-07-16T21:02:46.141152,14.79275705,.0012362,97.7615,245.5699,22.0633,338.1108,0,U,32783,999,98319,-.1687E-4,-.176E-5,0
CUTE-1.7+APD II (CO-65),2008-021C,2026-07-16T21:04:18.316128,15.09710264,.0006903,97.8297,179.9231,292.7093,67.3405,0,U,32785,999,98967,.1558E-3,.2444E-4,0
SEEDS II (CO-66),2008-021J,2026-07-16T12:05:34.598688,15.33693982,.0003211,97.7523,196.8243,153.5241,206.6165,0,U,32791,999,99178,.32533E-3,.10519E-3,0
YUBILEINY (RS30),2008-025A,2026-07-16T19:04:37.043616,12.43180449,.001865,82.5063,337.0212,245.1876,114.7265,0,U,32953,999,82337,-.51414E-3,-.62E-6,0
FENGYUN 3A,2008-026A,2026-07-16T10:32:01.107744,14.19576612,.0009637,98.6886,137.7257,48.7192,311.4813,0,U,32958,999,93955,.31374E-4,.23E-6,0
HUANJING 1A (HJ-1A),2008-041A,2026-07-16T21:37:40.963584,14.84049207,.0020192,97.6694,182.5937,44.3722,315.9106,0,U,33320,999,96281,.35368E-4,.244E-5,0
HUANJING 1B (HJ-1B),2008-041B,2026-07-16T21:12:48.526272,14.83367315,.0038002,97.6532,185.6587,85.9350,274.6207,0,U,33321,999,96281,.44217E-4,.315E-5,0
SHIJIAN-6 03A (SJ-6 03A),2008-053A,2026-07-16T20:34:27.293376,15.17420726,.0009465,97.8389,232.2128,269.5752,90.4396,0,U,33408,999,96746,.22654E-4,.38E-5,0
SHIJIAN-6 03B (SJ-6 03B),2008-053B,2026-07-16T19:58:20.068608,15.04379078,.001775,97.8564,218.2156,304.8713,55.0844,0,U,33409,999,96720,-.55576E-5,-.143E-5,0
CHUANGXIN 1-02 (CX-1-02),2008-056B,2026-07-16T21:23:54.125952,14.30158583,.0015341,98.6123,223.8609,55.8115,304.4519,0,U,33434,999,92286,.48603E-5,-.31E-6,0
STARS (KUKAI),2009-002G,2026-07-16T09:13:21.925056,14.95929759,.0009829,98.1553,145.8900,76.5948,283.6367,0,U,33498,999,94284,.15844E-3,.1712E-4,0
KKS-1 (KISEKI),2009-002H,2026-07-16T19:20:45.591936,14.83191379,.0007569,98.1173,120.7176,183.4463,176.6699,0,U,33499,999,94058,.77975E-4,.581E-5,0
NOAA 19,2009-005A,2026-07-16T20:26:00.081312,14.13478473,.0012859,98.9509,268.7458,309.2290,50.7740,0,U,33591,999,89867,.30974E-4,.13E-6,0
UK-DMC 2,2009-041C,2026-07-16T20:23:07.950912,14.76094169,.0001577,97.8874,332.0966,99.7567,260.3821,0,U,35683,999,91094,.13229E-4,.42E-6,0
METEOR-M 1,2009-049A,2026-07-16T21:14:35.771136,14.23162706,.0001604,98.7404,160.1479,192.7891,167.3246,0,U,35865,999,87347,.25844E-4,.14E-6,0
OCEANSAT-2,2009-051A,2026-07-16T20:47:26.776896,13.99655945,.0017448,98.2321,181.7545,148.6927,211.5282,0,U,35931,999,88348,-.45168E-5,-.44E-6,0
SWISSCUBE,2009-051B,2026-07-16T04:15:03.260448,14.62531689,.00078879,98.4006,105.5678,116.4429,243.7582,0,U,35932,999,89339,.97132642E-4,.443E-5,0
BEESAT-1,2009-051C,2026-07-16T16:20:27.869568,14.61763234,.0006186,98.3932,105.6536,125.9975,234.1800,0,U,35933,999,89349,.86615E-4,.383E-5,0
ITUPSAT1,2009-051E,2026-07-16T16:44:35.433312,14.60479971,.000818,98.4015,104.8308,138.8915,221.2902,0,U,35935,999,89304,.80333E-4,.341E-5,0
DMSP 5D-3 F18 (USA 210),2009-057A,2026-07-16T20:11:57.391008,14.14912398,.0011325,98.9057,178.5493,160.9186,199.2414,0,U,35951,999,86378,.11449E-3,.177E-5,0
PROBA-2,2009-059B,2026-07-16T17:52:56.269344,14.54873992,.0013118,98.2460,20.6896,183.8877,176.2220,0,U,36037,999,88582,.2361E-4,.56E-6,0
YAOGAN-7,2009-069A,2026-07-16T16:09:19.698624,14.78036235,.0023417,98.0031,83.3529,306.3785,53.5265,0,U,36110,999,89398,.32901E-4,.185E-5,0
XIWANG-1 (HOPE-1),2009-072B,2026-07-16T21:12:17.507808,13.16438974,.0007579,100.4040,151.2438,161.1139,199.0256,0,U,36122,999,79691,-.77375E-3,-.34E-5,0
RADUGA-1M 2,2010-002A,2026-07-16T19:15:41.101056,0.98969840,.0004814,3.6963,78.4907,262.0791,52.6022,0,U,36358,999,5031,0,-.232E-5,0
COSMOS 2463,2010-017A,2026-07-16T14:20:21.490080,13.71667260,.0037234,82.9581,228.0968,50.1267,62.9708,0,U,36519,999,81196,.15708E-4,.3E-6,0
CARTOSAT-2B,2010-035A,2026-07-16T20:15:38.835936,14.78652425,.001274,97.9937,248.2014,94.9936,265.2729,0,U,36795,999,86423,.69439E-4,.457E-5,0
AISSAT 1,2010-035C,2026-07-16T16:17:34.658304,14.97479258,.0007791,98.0894,97.9599,330.6633,29.4149,0,U,36797,999,86863,.14313E-3,.1605E-4,0
TISAT 1,2010-035E,2026-07-16T08:57:55.715328,15.32758593,.000458,98.0716,146.5388,117.8384,242.3321,0,U,36799,999,87217,.33782E-3,.10605E-3,0
YAOGAN-10,2010-038A,2026-07-16T20:49:53.153184,14.85432784,.0001691,97.8966,221.0356,81.7122,41.5124,0,U,36834,999,86161,.9077E-4,.728E-5,0
SHIJIAN-6 04B (SJ-6 04B),2010-051B,2026-07-16T20:30:06.684192,14.99381860,.0007917,97.8729,203.5823,206.6800,153.4016,0,U,37180,999,86012,-.25983E-4,-.38E-5,0
FENGYUN 3B,2010-059A,2026-07-16T20:57:54.257760,14.14845357,.0023184,98.9603,244.0115,101.9580,7.2017,0,U,37214,999,81162,-.16656E-3,-.367E-5,0
COSMO-SKYMED 4,2010-060A,2026-07-16T19:27:36.306432,14.82151951,.0001522,97.8888,20.9818,86.9362,273.2025,0,U,37216,999,84895,.11917E-3,.896E-5,0
O/OREOS (USA 219),2010-062C,2026-07-16T14:16:16.724928,14.93854584,.0014055,71.9698,13.7179,2.3576,357.7658,0,U,37224,999,12103,.98492E-4,.984E-5,0
ELEKTRO-L 1 (GOMS 2),2011-001A,2026-07-16T14:16:18.211008,1.00160800,.0004101,9.7510,54.2020,35.4544,295.3095,0,U,37344,999,5677,0,.19E-6,0
RESOURCESAT-2,2011-015A,2026-07-16T18:58:25.533120,14.21599740,.0011644,98.7631,265.0257,166.6155,193.5333,0,U,37387,999,79038,.31074E-4,.24E-6,0
YOUTHSAT,2011-015B,2026-07-16T12:04:43.576032,14.25640905,.0013191,98.3703,170.2388,255.0308,216.8597,0,U,37388,999,79181,.45865E-4,.67E-6,0
APRIZESAT 6,2011-044F,2026-07-16T16:29:47.355360,14.76958082,.0042928,98.2336,108.7867,353.4977,79.6691,0,U,37793,999,80150,.56825E-4,.349E-5,0
JUGNU,2011-058B,2026-07-16T20:45:00.944064,14.13783693,.0018609,19.9595,128.1201,44.8946,353.5105,0,U,37839,999,76323,.38423E-4,.34E-5,0
SRMSAT,2011-058D,2026-07-16T12:02:44.649024,14.11581255,.0011714,19.9708,242.0370,165.5426,335.9764,0,U,37841,999,76196,.34086E-4,.328E-5,0
SUOMI NPP,2011-061A,2026-07-16T20:58:46.294752,14.19522768,.000082,98.7955,138.5484,205.0663,155.0473,0,U,37849,999,76265,.3256E-4,.24E-6,0
YAOGAN-12,2011-066B,2026-07-16T21:21:34.138080,15.26901573,.0010983,97.1123,235.0644,116.8345,243.4019,0,U,37875,999,81657,.63349E-4,.1607E-4,0
BEIDOU-2 M4,2012-018B,2026-07-16T02:48:11.782656,1.86229279,.0012128,55.6311,303.1118,272.2948,87.5971,0,U,38251,999,9648,0,-.75E-6,0
ARIRANG-3 (KOMPSAT-3),2012-025B,2026-07-16T20:50:10.528224,14.62229824,.0006126,98.1186,154.8191,34.3527,325.8070,0,U,38338,999,75568,.44807E-4,.179E-5,0
HORYU-2,2012-025D,2026-07-16T19:57:36.510048,14.91231338,.000932,98.2211,331.9893,87.6526,272.5758,0,U,38340,999,75314,.14702E-3,.1401E-4,0
CSSWE,2012-048D,2026-07-16T16:11:25.857312,15.45995411,.0041085,64.6638,353.4887,164.9044,195.3331,0,U,38761,999,12095,.42194E-3,.21173E-3,0
CP5,2012-048F,2026-07-16T14:01:23.780928,15.28311616,.007388,64.6443,55.3930,166.6542,193.6566,0,U,38763,999,12125,.24246E-3,.7052E-4,0
METOP-B,2012-049A,2026-07-16T19:46:48.006336,14.21446659,.000113,98.6489,248.7297,246.1473,113.9586,0,U,38771,999,71747,.37114E-4,.38E-6,0
SJ-9A,2012-056A,2026-07-16T20:52:19.423200,14.85530530,.0026122,97.6730,168.7520,156.3828,203.8593,0,U,38860,999,70399,.6008E-4,.469E-5,0
COSMOS 2484 (RODNIK-S 6),2013-001C,2026-07-16T20:21:21.212352,12.42940850,.0025597,82.4991,203.4516,331.9722,27.9978,0,U,39059,999,61224,.57932E-3,.9E-6,0
SARAL,2013-009A,2026-07-16T20:35:49.445952,14.32896063,.0001795,98.5556,24.0503,162.4857,197.6389,0,U,39086,999,69985,.24515E-4,.23E-6,0
AAUSAT 3,2013-009B,2026-07-16T07:05:43.798848,14.39972458,.0012514,98.3709,20.4283,121.4749,238.7664,0,U,39087,999,70136,.10449E-3,.286E-5,0
STRAND-1,2013-009E,2026-07-16T10:28:10.914816,14.37179260,.0009469,98.3935,16.9527,137.7246,222.4672,0,U,39090,999,70126,.51462E-4,.11E-5,0
BRITE-AUSTRIA,2013-009F,2026-07-16T17:46:11.830080,14.36552858,.0010847,98.4009,16.4468,146.3030,213.8848,0,U,39091,999,70129,.36704E-4,.65E-6,0
